XRISM                   
1 57800U 23137A   23261.32084444  .00003627  00000+0  29396-3 0  9998
2 57800  31.0065 304.9242 0009909  27.9008  67.7484 14.97898622  1692
